ONEWEB-0525             
1 54143U 22138AG  23298.93783312  .00000075  00000+0  15418-3 0  9996
2 54143  87.9190 137.0951 0001856  71.8518 288.2817 13.19724050 49516
ONEWEB-0526             
1 54144U 22138AH  23299.04683291  .00000762  00000+0  18703-2 0  9997
2 54144  87.9189 137.0725 0001742  76.3516 283.7811 13.19723152 50378
ONEWEB-0529             
1 54145U 22138AJ  23299.50489277 -.00000365  00000+0 -94361-3 0  9993
2 54145  87.9186 136.9800 0001797  67.1642 292.9681 13.19727172 50458
ONEWEB-0531             
1 54146U 22138AK  23298.94000003 -.00000021  00000+0 -83448-4 0  9991
2 54146  87.9191 106.5681 0001078 132.8520 227.2704 13.20773235 51891
ONEWEB-0535             
1 54147U 22138AL  23299.53803389 -.00006835  00000+0 -17108-1 0  9992
2 54147  87.9186 136.9747 0001810  89.4515 270.6825 13.19761908 50472
ONEWEB-0536             
1 54148U 22138AM  23298.92735620 -.00000058  00000+0 -17394-3 0  9997
2 54148  87.9191 106.6206 0001853 128.1101 232.0199 13.20773383 51886
GSLV R/B                
1 54149U 22138AN  23298.91093680  .00002759  00000+0  28778-3 0  9996
2 54149  87.3760  95.3134 0026159  45.4631 314.8726 14.89134828 54757
ONEWEB-0527             
1 54642U 22166A   23298.89077136  .00000049  00000+0  86371-4 0  9994
2 54642  87.9192  76.1802 0001543  94.6543 265.4767 13.21829087 44014
